NORAD_CAT_ID,OBJECT_NAME,OBJECT_TYPE,EPOCH,MEAN_MOTION,ECCENTRICITY,INCLINATION,RA_OF_ASC_NODE,ARG_OF_PERICENTER,MEAN_ANOMALY,BSTAR,MEAN_MOTION_DOT,MEAN_MOTION_DDOT,TLE_LINE0,TLE_LINE1,TLE_LINE2,SEMIMAJOR_AXIS,PERIOD,APOGEE,PERIGEE,DECAYED
56773.0,STARLINK-6296,PAYLOAD,2023-09-06 02:38:14,15.69930577,0.0003118,69.9977,138.239,266.4434,93.6405,3.3733e-06,1.93e-06,0.0,0 STARLINK-6296,1 56773U 23078G   23249.10988616  .00000193  00000-0  33733-5 0  9994,2 56773  69.9977 138.2390 0003118 266.4434  93.6405 15.69930577 15662,6737.233,91.724,361.198,356.997,0.0
56773.0,STARLINK-6296,PAYLOAD,2023-09-07 03:06:16,15.69929501,0.0003185,69.9971,135.3735,271.323,88.7601,-1.802e-06,-4.29e-06,0.0,0 STARLINK-6296,1 56773U 23078G   23250.12935304 -.00000429  00000-0 -18020-5 0  9990,2 56773  69.9971 135.3735 0003185 271.3230  88.7601 15.69929501 15826,6737.236,91.724,361.247,356.955,0.0
56773.0,STARLINK-6296,PAYLOAD,2023-09-07 15:20:14,15.6997599,0.0003602,69.9984,133.9386,258.704,101.3751,-6.6431e-05,-8.211e-05,0.0,0 STARLINK-6296,1 56773U 23078G   23250.63905724 -.00008211  00000-0 -66431-4 0  9994,2 56773  69.9984 133.9386 0003602 258.7040 101.3751 15.69975990 15649,6737.103,91.721,361.394,356.541,0.0
56773.0,STARLINK-6296,PAYLOAD,2023-09-08 02:02:32,15.69923152,0.0004313,69.9977,132.6844,253.2434,106.8289,1.8762e-05,2.044e-05,0.0,0 STARLINK-6296,1 56773U 23078G   23251.08510065  .00002044  00000-0  18762-4 0  9994,2 56773  69.9977 132.6844 0004313 253.2434 106.8289 15.69923152 15978,6737.254,91.724,362.025,356.213,0.0
56773.0,STARLINK-6296,PAYLOAD,2023-09-08 18:51:49,15.69929071,0.0003233,69.9989,130.715,264.9036,95.179,3.7405e-06,2.37e-06,0.0,0 STARLINK-6296,1 56773U 23078G   23251.78598869  .00000237  00000-0  37405-5 0  9997,2 56773  69.9989 130.7150 0003233 264.9036  95.1790 15.69929071 15824,6737.237,91.724,361.28,356.924,0.0
56773.0,STARLINK-6296,PAYLOAD,2023-09-09 02:30:34,15.69929021,0.0003352,69.9975,129.8196,267.1364,92.9448,3.4764e-06,2.05e-06,0.0,0 STARLINK-6296,1 56773U 23078G   23252.10457140  .00000205  00000-0  34764-5 0  9990,2 56773  69.9975 129.8196 0003352 267.1364  92.9448 15.69929021 16134,6737.237,91.724,361.36,356.844,0.0
56773.0,STARLINK-6296,PAYLOAD,2023-09-10 01:26:51,15.6992073,0.000438,69.9963,127.1321,255.9401,104.1308,9.5673e-06,9.37e-06,0.0,0 STARLINK-6296,1 56773U 23078G   23253.06032338  .00000937  00000-0  95673-5 0  9992,2 56773  69.9963 127.1321 0004380 255.9401 104.1308 15.69920730 16286,6737.261,91.724,362.077,356.175,0.0
56773.0,STARLINK-6296,PAYLOAD,2023-09-11 01:54:53,15.69932984,0.0003135,69.9974,124.2675,257.1773,102.9073,5.3675e-06,4.33e-06,0.0,0 STARLINK-6296,1 56773U 23078G   23254.07978881  .00000433  00000-0  53675-5 0  9993,2 56773  69.9974 124.2675 0003135 257.1773 102.9073 15.69932984 16448,6737.226,91.724,361.203,356.979,0.0
56773.0,STARLINK-6296,PAYLOAD,2023-09-12 00:51:10,15.6992905,0.0003456,69.9968,121.5781,269.8015,90.2785,1.4894e-05,1.579e-05,0.0,0 STARLINK-6296,1 56773U 23078G   23255.03553893  .00001579  00000-0  14894-4 0  9993,2 56773  69.9968 121.5781 0003456 269.8015  90.2785 15.69929050 16599,6737.237,91.724,361.43,356.774,0.0
56773.0,STARLINK-6296,PAYLOAD,2023-09-12 17:40:27,15.69920463,0.0003628,69.9968,119.6079,269.0719,91.0061,9.3402e-06,9.1e-06,0.0,0 STARLINK-6296,1 56773U 23078G   23255.73643004  .00000910  00000-0  93402-5 0  9995,2 56773  69.9968 119.6079 0003628 269.0719  91.0061 15.69920463 16709,6737.262,91.724,361.571,356.682,0.0
56773.0,STARLINK-6296,PAYLOAD,2023-09-12 23:47:27,15.69931604,0.0003003,69.9966,118.8923,249.4869,110.6005,1.6737e-05,1.801e-05,0.0,0 STARLINK-6296,1 56773U 23078G   23255.99128670  .00001801  00000-0  16737-4 0  9995,2 56773  69.9966 118.8923 0003003 249.4869 110.6005 15.69931604 16740,6737.23,91.724,361.118,357.071,0.0
56773.0,STARLINK-6296,PAYLOAD,2023-09-13 18:08:31,15.69892491,0.0003614,69.9967,116.7411,278.2827,81.7959,-2.7992e-05,-3.573e-05,0.0,0 STARLINK-6296,1 56773U 23078G   23256.75591899 -.00003573  00000-0 -27992-4 0  9992,2 56773  69.9967 116.7411 0003614 278.2827  81.7959 15.69892491 16861,6737.342,91.726,361.641,356.772,0.0
56773.0,STARLINK-6296,PAYLOAD,2023-09-14 00:15:31,15.69895487,0.0003723,69.9969,116.0252,272.2158,87.8612,-1.5074e-05,-2.023e-05,0.0,0 STARLINK-6296,1 56773U 23078G   23257.01078563 -.00002023  00000-0 -15074-4 0  9997,2 56773  69.9969 116.0252 0003723 272.2158  87.8612 15.69895487 16907,6737.333,91.726,361.706,356.69,0.0
56773.0,STARLINK-6296,PAYLOAD,2023-09-14 17:04:45,15.69929633,0.0003099,69.9971,114.0539,265.2185,94.8657,2.8248e-05,3.186e-05,0.0,0 STARLINK-6296,1 56773U 23078G   23257.71164322  .00003186  00000-0  28248-4 0  9999,2 56773  69.9971 114.0539 0003099 265.2185  94.8657 15.69929633 17015,6737.235,91.724,361.188,357.012,0.0
56773.0,STARLINK-6296,PAYLOAD,2023-09-14 18:36:31,15.69929201,0.0002848,69.9971,113.8746,260.9635,99.1238,1.9301e-05,2.109e-05,0.0,0 STARLINK-6296,1 56773U 23078G   23257.77536167  .00002109  00000-0  19301-4 0  9999,2 56773  69.9971 113.8746 0002848 260.9635  99.1238 15.69929201 16760,6737.237,91.724,361.02,357.183,0.0
56773.0,STARLINK-6296,PAYLOAD,2023-09-15 03:47:01,15.69940713,0.000345,69.9987,112.801,275.9745,84.1058,5.1096e-05,5.94e-05,0.0,0 STARLINK-6296,1 56773U 23078G   23258.15765633  .00005940  00000-0  51096-4 0  9997,2 56773  69.9987 112.8010 0003450 275.9745  84.1058 15.69940713 16820,6737.204,91.723,361.393,356.744,0.0
56773.0,STARLINK-6296,PAYLOAD,2023-09-15 17:32:48,15.69913398,0.0003525,69.9979,111.1877,267.9746,92.1046,4.7453e-05,5.494e-05,0.0,0 STARLINK-6296,1 56773U 23078G   23258.73111944  .00005494  00000-0  47453-4 0  9997,2 56773  69.9979 111.1877 0003525 267.9746  92.1046 15.69913398 17173,6737.282,91.725,361.522,356.772,0.0
56773.0,STARLINK-6296,PAYLOAD,2023-09-15 23:39:49,15.6990868,0.0003403,69.9987,110.4719,269.1203,90.9603,2.8224e-05,3.18e-05,0.0,0 STARLINK-6296,1 56773U 23078G   23258.98599033  .00003180  00000-0  28224-4 0  9998,2 56773  69.9987 110.4719 0003403 269.1203  90.9603 15.69908680 17214,6737.295,91.725,361.453,356.868,0.0
56773.0,STARLINK-6296,PAYLOAD,2023-09-16 16:29:04,15.69928345,0.0003894,69.9974,108.5013,270.6169,89.4581,-1.2233e-05,-1.684e-05,0.0,0 STARLINK-6296,1 56773U 23078G   23259.68686335 -.00001684  00000-0 -12233-4 0  9990,2 56773  69.9974 108.5013 0003894 270.6169  89.4581 15.69928345 17327,6737.239,91.724,361.727,356.481,0.0
56773.0,STARLINK-6296,PAYLOAD,2023-09-17 00:07:50,15.69927594,0.0003831,69.9985,107.6044,272.1787,87.897,-2.0451e-06,-4.59e-06,0.0,0 STARLINK-6296,1 56773U 23078G   23260.00544700 -.00000459  00000-0 -20451-5 0  9998,2 56773  69.9985 107.6044 0003831 272.1787  87.8970 15.69927594 17113,6737.241,91.724,361.687,356.525,0.0
56773.0,STARLINK-6296,PAYLOAD,2023-09-17 16:57:06,15.69927949,0.0003904,69.998,105.6342,275.3876,84.6874,3.3895e-05,3.865e-05,0.0,0 STARLINK-6296,1 56773U 23078G   23260.70632942  .00003865  00000-0  33895-4 0  9998,2 56773  69.9980 105.6342 0003904 275.3876  84.6874 15.69927949 17484,6737.24,91.724,361.735,356.475,0.0
56773.0,STARLINK-6296,PAYLOAD,2023-09-17 23:04:07,15.69916282,0.000375,69.9987,104.9174,272.2069,87.8698,1.8255e-05,1.982e-05,0.0,0 STARLINK-6296,1 56773U 23078G   23260.96120217  .00001982  00000-0  18255-4 0  9994,2 56773  69.9987 104.9174 0003750 272.2069  87.8698 15.69916282 17527,6737.274,91.725,361.665,356.612,0.0
56773.0,STARLINK-6296,PAYLOAD,2023-09-18 14:21:38,15.69921218,0.0003435,69.9989,103.1266,270.7767,89.3035,2.2235e-05,2.461e-05,0.0,0 STARLINK-6296,1 56773U 23078G   23261.59836799  .00002461  00000-0  22235-4 0  9999,2 56773  69.9989 103.1266 0003435 270.7767  89.3035 15.69921218 17369,6737.259,91.724,361.439,356.81,0.0
56773.0,STARLINK-6296,PAYLOAD,2023-09-18 17:25:09,15.69922602,0.00035,69.9989,102.7682,272.0474,88.0321,2.3127e-05,2.569e-05,0.0,0 STARLINK-6296,1 56773U 23078G   23261.72580146  .00002569  00000-0  23127-4 0  9996,2 56773  69.9989 102.7682 0003500 272.0474  88.0321 15.69922602 17383,6737.255,91.724,361.478,356.762,0.0
56773.0,STARLINK-6296,PAYLOAD,2023-09-18 23:32:09,15.69930559,0.0003541,69.999,102.0511,273.0591,87.0199,3.9196e-05,4.504e-05,0.0,0 STARLINK-6296,1 56773U 23078G   23261.98066489  .00004504  00000-0  39196-4 0  9997,2 56773  69.9990 102.0511 0003541 273.0591  87.0199 15.69930559 17680,6737.233,91.724,361.483,356.712,0.0
56773.0,STARLINK-6296,PAYLOAD,2023-09-19 19:24:57,15.69893134,0.0003705,69.9995,99.7224,274.205,85.8722,-7.8887e-05,-9.676e-05,0.0,0 STARLINK-6296,1 56773U 23078G   23262.80899322 -.00009676  00000-0 -78887-4 0  9996,2 56773  69.9995  99.7224 0003705 274.2050  85.8722 15.69893134 17813,6737.34,91.726,361.701,356.709,0.0
56773.0,STARLINK-6296,PAYLOAD,2023-09-20 00:00:12,15.69912626,0.0003277,69.9997,99.1837,269.6137,90.4683,-1.3967e-05,-1.891e-05,0.0,0 STARLINK-6296,1 56773U 23078G   23263.00013892 -.00001891  00000-0 -13967-4 0  9998,2 56773  69.9997  99.1837 0003277 269.6137  90.4683 15.69912626 17846,6737.284,91.725,361.357,356.941,0.0
56773.0,STARLINK-6296,PAYLOAD,2023-09-20 13:45:58,15.69925092,0.0003415,69.9992,97.572,270.4748,89.6056,3.2619e-05,3.711e-05,0.0,0 STARLINK-6296,1 56773U 23078G   23263.57358866  .00003711  00000-0  32619-4 0  9999,2 56773  69.9992  97.5720 0003415 270.4748  89.6056 15.69925092 17672,6737.248,91.724,361.414,356.813,0.0
56773.0,STARLINK-6296,PAYLOAD,2023-09-20 16:49:28,15.69931087,0.0003159,70.0,97.2138,265.2009,94.8826,7.5261e-05,8.849e-05,0.0,0 STARLINK-6296,1 56773U 23078G   23263.70102143  .00008849  00000-0  75261-4 0  9996,2 56773  70.0000  97.2138 0003159 265.2009  94.8826 15.69931087 17957,6737.231,91.724,361.224,356.968,0.0
56773.0,STARLINK-6296,PAYLOAD,2023-09-20 21:24:43,15.69935647,0.000351,70.0001,96.677,273.4181,86.6613,0.00014395,0.0001714,0.0,0 STARLINK-6296,1 56773U 23078G   23263.89217243  .00017140  00000-0  14395-3 0  9998,2 56773  70.0001  96.6770 0003510 273.4181  86.6613 15.69935647 17720,6737.218,91.724,361.448,356.718,0.0
